[{"OBJECT_NAME":"HULIANWANG DIGUI-37","OBJECT_ID":"2025-159C","EPOCH":"2026-03-09T23:16:22.543968","MEAN_MOTION":13.24419852,"ECCENTRICITY":0.00013714,"INCLINATION":86.4936,"RA_OF_ASC_NODE":315.8693,"ARG_OF_PERICENTER":71.5408,"MEAN_ANOMALY":288.5875,"EPHEMERIS_TYPE":0,"CLASSIFICATION_TYPE":"U","NORAD_CAT_ID":64958,"ELEMENT_SET_NO":999,"REV_AT_EPOCH":2999,"BSTAR":5.5127962e-5,"MEAN_MOTION_DOT":3.8e-7,"MEAN_MOTION_DDOT":0},{"OBJECT_NAME":"FENGYUN 1C DEB","OBJECT_ID":"1999-025EZT","EPOCH":"2026-03-09T13:00:39.279456","MEAN_MOTION":13.69262259,"ECCENTRICITY":0.02635874,"INCLINATION":98.7251,"RA_OF_ASC_NODE":183.9217,"ARG_OF_PERICENTER":69.7913,"MEAN_ANOMALY":350.124,"EPHEMERIS_TYPE":0,"CLASSIFICATION_TYPE":"U","NORAD_CAT_ID":46993,"ELEMENT_SET_NO":999,"REV_AT_EPOCH":61445,"BSTAR":0.00039758472,"MEAN_MOTION_DOT":4.04e-6,"MEAN_MOTION_DDOT":0}]
